start=new Date('2022-04-11T00:00:00.000Z').valueOf();
sats=[{"REV_AT_EPOCH":"11066","RA_OF_ASC_NODE":"334.6575","TLE_LINE1":"1 45552U 20025X   22100.88515783  .00107490  00000-0  22456-2 0  9992","BSTAR":"0.00224560000000","DECAY_DATE":null,"TIME_SYSTEM":"UTC","SEMIMAJOR_AXIS":"6810.444","COUNTRY_CODE":"US","SITE":"AFETR","EPHEMERIS_TYPE":"0","MEAN_MOTION_DDOT":"0.0000000000000","CLASSIFICATION_TYPE":"U","MEAN_ELEMENT_THEORY":"SGP4","OBJECT_TYPE":"PAYLOAD","MEAN_ANOMALY":"31.9772","INCLINATION":"53.0545","OBJECT_ID":"2020-025X","FILE":"3396586","OBJECT_NAME":"STARLINK-1322","TLE_LINE2":"2 45552  53.0545 334.6575 0000245 328.1219  31.9772 15.44684042110666","EPOCH":"2022-04-10T21:14:37.636512","ARG_OF_PERICENTER":"328.1219","LAUNCH_DATE":"2020-04-22","ECCENTRICITY":"0.00002450","NORAD_CAT_ID":"45552","MEAN_MOTION_DOT":"0.00107490","RCS_SIZE":"LARGE","PERIAPSIS":"432.142","PERIOD":"93.223","ELEMENT_SET_NO":"999","APOAPSIS":"432.475","MEAN_MOTION":"15.44684042","GP_ID":"200938828","REF_FRAME":"TEME","CENTER_NAME":"EARTH"},{"MEAN_MOTION_DOT":"0.00000641","RCS_SIZE":"LARGE","NORAD_CAT_ID":"45553","ELEMENT_SET_NO":"999","PERIOD":"95.592","PERIAPSIS":"546.056","GP_ID":"200906706","MEAN_MOTION":"15.06402693","APOAPSIS":"548.355","CENTER_NAME":"EARTH","REF_FRAME":"TEME","TIME_SYSTEM":"UTC","DECAY_DATE":null,"REV_AT_EPOCH":"10866","RA_OF_ASC_NODE":"22.6389","BSTAR":"0.00006191800000","TLE_LINE1":"1 45553U 20025Y   22100.46908388  .00000641  00000-0  61918-4 0  9992","SITE":"AFETR","SEMIMAJOR_AXIS":"6925.340","COUNTRY_CODE":"US","CLASSIFICATION_TYPE":"U","MEAN_MOTION_DDOT":"0.0000000000000","EPHEMERIS_TYPE":"0","ARG_OF_PERICENTER":"63.8161","TLE_LINE2":"2 45553  53.0539  22.6389 0001660  63.8161 296.2999 15.06402693108660","OBJECT_NAME":"STARLINK-1323","EPOCH":"2022-04-10T11:15:28.847232","ECCENTRICITY":"0.00016600","LAUNCH_DATE":"2020-04-22","OBJECT_TYPE":"PAYLOAD","INCLINATION":"53.0539","MEAN_ELEMENT_THEORY":"SGP4","MEAN_ANOMALY":"296.2999","FILE":"3396223","OBJECT_ID":"2020-025Y"},{"PERIOD":"95.593","PERIAPSIS":"546.277","ELEMENT_SET_NO":"999","MEAN_MOTION_DOT":"-0.00001615","RCS_SIZE":"LARGE","NORAD_CAT_ID":"45554","CENTER_NAME":"EARTH","REF_FRAME":"TEME","GP_ID":"200906457","APOAPSIS":"548.229","MEAN_MOTION":"15.06387202","SITE":"AFETR","SEMIMAJOR_AXIS":"6925.388","COUNTRY_CODE":"US","DECAY_DATE":null,"TIME_SYSTEM":"UTC","REV_AT_EPOCH":"10991","RA_OF_ASC_NODE":"23.8537","TLE_LINE1":"1 45554U 20025Z   22100.19633634 -.00001615  00000-0 -89585-4 0  9996","BSTAR":"-0.00008958500000","OBJECT_NAME":"STARLINK-1325","TLE_LINE2":"2 45554  53.0564  23.8537 0001409  80.8400 279.2748 15.06387202109913","EPOCH":"2022-04-10T04:42:43.459776","ARG_OF_PERICENTER":"80.8400","LAUNCH_DATE":"2020-04-22","ECCENTRICITY":"0.00014090","INCLINATION":"53.0564","OBJECT_TYPE":"PAYLOAD","MEAN_ELEMENT_THEORY":"SGP4","MEAN_ANOMALY":"279.2748","FILE":"3396223","OBJECT_ID":"2020-025Z","CLASSIFICATION_TYPE":"U","MEAN_MOTION_DDOT":"0.0000000000000","EPHEMERIS_TYPE":"0"},{"APOAPSIS":"548.214","MEAN_MOTION":"15.06386174","GP_ID":"200905705","REF_FRAME":"TEME","CENTER_NAME":"EARTH","NORAD_CAT_ID":"45555","RCS_SIZE":"LARGE","MEAN_MOTION_DOT":"-0.00000328","PERIAPSIS":"546.297","PERIOD":"95.593","ELEMENT_SET_NO":"999","MEAN_MOTION_DDOT":"0.0000000000000","EPHEMERIS_TYPE":"0","CLASSIFICATION_TYPE":"U","OBJECT_ID":"2020-025AA","FILE":"3396223","INCLINATION":"53.0555","OBJECT_TYPE":"PAYLOAD","MEAN_ELEMENT_THEORY":"SGP4","MEAN_ANOMALY":"292.1108","LAUNCH_DATE":"2020-04-22","ECCENTRICITY":"0.00013840","TLE_LINE2":"2 45555  53.0555  23.4247 0001384  68.0028 292.1108 15.06386174109926","OBJECT_NAME":"STARLINK-1327","EPOCH":"2022-04-10T07:00:43.574400","ARG_OF_PERICENTER":"68.0028","TLE_LINE1":"1 45555U 20025AA  22100.29217100 -.00000328  00000-0 -31589-5 0  9996","BSTAR":"-0.00000315890000","RA_OF_ASC_NODE":"23.4247","REV_AT_EPOCH":"10992","DECAY_DATE":null,"TIME_SYSTEM":"UTC","COUNTRY_CODE":"US","SEMIMAJOR_AXIS":"6925.391","SITE":"AFETR"},{"COUNTRY_CODE":"US","SEMIMAJOR_AXIS":"6925.392","SITE":"AFETR","TLE_LINE1":"1 45556U 20025AB  22100.20002085 -.00002189  00000-0 -12812-3 0  9995","BSTAR":"-0.00012812000000","REV_AT_EPOCH":"10991","RA_OF_ASC_NODE":"23.8576","TIME_SYSTEM":"UTC","DECAY_DATE":null,"OBJECT_ID":"2020-025AB","FILE":"3396223","MEAN_ANOMALY":"307.1262","OBJECT_TYPE":"PAYLOAD","MEAN_ELEMENT_THEORY":"SGP4","INCLINATION":"53.0564","ECCENTRICITY":"0.00015970","LAUNCH_DATE":"2020-04-22","ARG_OF_PERICENTER":"52.9873","TLE_LINE2":"2 45556  53.0564  23.8576 0001597  52.9873 307.1262 15.06385976109918","EPOCH":"2022-04-10T04:48:01.801440","OBJECT_NAME":"STARLINK-1334","EPHEMERIS_TYPE":"0","MEAN_MOTION_DDOT":"0.0000000000000","CLASSIFICATION_TYPE":"U","ELEMENT_SET_NO":"999","PERIAPSIS":"546.151","PERIOD":"95.593","NORAD_CAT_ID":"45556","RCS_SIZE":"LARGE","MEAN_MOTION_DOT":"-0.00002189","REF_FRAME":"TEME","CENTER_NAME":"EARTH","MEAN_MOTION":"15.06385976","APOAPSIS":"548.363","GP_ID":"200905955"},{"REF_FRAME":"TEME","CENTER_NAME":"EARTH","MEAN_MOTION":"15.06404553","APOAPSIS":"548.222","GP_ID":"200906207","ELEMENT_SET_NO":"999","PERIAPSIS":"546.177","PERIOD":"95.592","NORAD_CAT_ID":"45557","MEAN_MOTION_DOT":"0.00001047","RCS_SIZE":"LARGE","INCLINATION":"53.0566","OBJECT_TYPE":"PAYLOAD","MEAN_ELEMENT_THEORY":"SGP4","MEAN_ANOMALY":"290.0213","OBJECT_ID":"2020-025AC","FILE":"3396223","ARG_OF_PERICENTER":"70.0935","TLE_LINE2":"2 45557  53.0566  22.6184 0001476  70.0935 290.0213 15.06404553109952","EPOCH":"2022-04-10T11:20:46.897728","OBJECT_NAME":"STARLINK-1336","ECCENTRICITY":"0.00014760","LAUNCH_DATE":"2020-04-22","EPHEMERIS_TYPE":"0","MEAN_MOTION_DDOT":"0.0000000000000","CLASSIFICATION_TYPE":"U","SEMIMAJOR_AXIS":"6925.335","COUNTRY_CODE":"US","SITE":"AFETR","REV_AT_EPOCH":"10995","RA_OF_ASC_NODE":"22.6184","TLE_LINE1":"1 45557U 20025AC  22100.47276502  .00001047  00000-0  89133-4 0  9993","BSTAR":"0.00008913300000","TIME_SYSTEM":"UTC","DECAY_DATE":null},{"TLE_LINE2":"2 45558  53.0566  20.9922 0001459  80.0035 280.1119 15.06406623110000","OBJECT_NAME":"STARLINK-1342","EPOCH":"2022-04-10T20:06:15.082848","ARG_OF_PERICENTER":"80.0035","LAUNCH_DATE":"2020-04-22","ECCENTRICITY":"0.00014590","OBJECT_TYPE":"PAYLOAD","INCLINATION":"53.0566","MEAN_ELEMENT_THEORY":"SGP4","MEAN_ANOMALY":"280.1119","FILE":"3396586","OBJECT_ID":"2020-025AD","CLASSIFICATION_TYPE":"U","MEAN_MOTION_DDOT":"0.0000000000000","EPHEMERIS_TYPE":"0","SITE":"AFETR","SEMIMAJOR_AXIS":"6925.328","COUNTRY_CODE":"US","DECAY_DATE":null,"TIME_SYSTEM":"UTC","REV_AT_EPOCH":"11000","RA_OF_ASC_NODE":"20.9922","TLE_LINE1":"1 45558U 20025AD  22100.83767457  .00001259  00000-0  10341-3 0  9997","BSTAR":"0.00010341000000","CENTER_NAME":"EARTH","REF_FRAME":"TEME","GP_ID":"200939830","APOAPSIS":"548.204","MEAN_MOTION":"15.06406623","PERIAPSIS":"546.183","PERIOD":"95.592","ELEMENT_SET_NO":"999","MEAN_MOTION_DOT":"0.00001259","RCS_SIZE":"LARGE","NORAD_CAT_ID":"45558"},{"MEAN_MOTION_DDOT":"0.0000000000000","EPHEMERIS_TYPE":"0","CLASSIFICATION_TYPE":"U","FILE":"3396223","OBJECT_ID":"2020-025AE","MEAN_ANOMALY":"293.6938","OBJECT_TYPE":"PAYLOAD","MEAN_ELEMENT_THEORY":"SGP4","INCLINATION":"53.0561","ECCENTRICITY":"0.00014840","LAUNCH_DATE":"2020-04-22","ARG_OF_PERICENTER":"66.4207","OBJECT_NAME":"STARLINK-1344","TLE_LINE2":"2 45559  53.0561  22.5962 0001484  66.4207 293.6938 15.06397848109953","EPOCH":"2022-04-10T11:26:05.904672","TLE_LINE1":"1 45559U 20025AE  22100.47645723  .00000094  00000-0  25182-4 0  9995","BSTAR":"0.00002518200000","REV_AT_EPOCH":"10995","RA_OF_ASC_NODE":"22.5962","TIME_SYSTEM":"UTC","DECAY_DATE":null,"COUNTRY_CODE":"US","SEMIMAJOR_AXIS":"6925.355","SITE":"AFETR","MEAN_MOTION":"15.06397848","APOAPSIS":"548.248","GP_ID":"200905206","REF_FRAME":"TEME","CENTER_NAME":"EARTH","NORAD_CAT_ID":"45559","RCS_SIZE":"LARGE","MEAN_MOTION_DOT":"0.00000094","ELEMENT_SET_NO":"999","PERIOD":"95.592","PERIAPSIS":"546.192"},{"APOAPSIS":"548.284","MEAN_MOTION":"15.06403091","GP_ID":"200938829","REF_FRAME":"TEME","CENTER_NAME":"EARTH","NORAD_CAT_ID":"45560","MEAN_MOTION_DOT":"0.00001407","RCS_SIZE":"LARGE","PERIAPSIS":"546.124","PERIOD":"95.592","ELEMENT_SET_NO":"999","EPHEMERIS_TYPE":"0","MEAN_MOTION_DDOT":"0.0000000000000","CLASSIFICATION_TYPE":"U","OBJECT_TYPE":"PAYLOAD","INCLINATION":"53.0558","MEAN_ELEMENT_THEORY":"SGP4","MEAN_ANOMALY":"290.7102","FILE":"3396586","OBJECT_ID":"2020-025AF","OBJECT_NAME":"STARLINK-1346","TLE_LINE2":"2 45560  53.0558  10.8895 0001559  69.4054 290.7102 15.06403091110155","EPOCH":"2022-04-10T20:39:25.806240","ARG_OF_PERICENTER":"69.4054","LAUNCH_DATE":"2020-04-22","ECCENTRICITY":"0.00015590","RA_OF_ASC_NODE":"10.8895","REV_AT_EPOCH":"11015","BSTAR":"0.00011336000000","TLE_LINE1":"1 45560U 20025AF  22100.86071535  .00001407  00000-0  11336-3 0  9998","DECAY_DATE":null,"TIME_SYSTEM":"UTC","SEMIMAJOR_AXIS":"6925.339","COUNTRY_CODE":"US","SITE":"AFETR"},{"NORAD_CAT_ID":"45561","RCS_SIZE":"LARGE","MEAN_MOTION_DOT":"0.00018658","ELEMENT_SET_NO":"999","PERIAPSIS":"532.266","PERIOD":"95.302","MEAN_MOTION":"15.10984110","APOAPSIS":"534.133","GP_ID":"200939079","REF_FRAME":"TEME","CENTER_NAME":"EARTH","BSTAR":"0.00111950000000","TLE_LINE1":"1 45561U 20025AG  22100.83108908  .00018658  00000-0  11195-2 0  9999","REV_AT_EPOCH":"11124","RA_OF_ASC_NODE":"293.0779","TIME_SYSTEM":"UTC","DECAY_DATE":null,"COUNTRY_CODE":"US","SEMIMAJOR_AXIS":"6911.334","SITE":"AFETR","MEAN_MOTION_DDOT":"0.0000000000000","EPHEMERIS_TYPE":"0","CLASSIFICATION_TYPE":"U","FILE":"3396586","OBJECT_ID":"2020-025AG","OBJECT_TYPE":"PAYLOAD","INCLINATION":"53.0580","MEAN_ELEMENT_THEORY":"SGP4","MEAN_ANOMALY":"249.8897","ECCENTRICITY":"0.00013510","LAUNCH_DATE":"2020-04-22","ARG_OF_PERICENTER":"110.2239","EPOCH":"2022-04-10T19:56:46.096512","TLE_LINE2":"2 45561  53.0580 293.0779 0001351 110.2239 249.8897 15.10984110111245","OBJECT_NAME":"STARLINK-1348"}];
